start=new Date('2021-09-02T00:00:00.000Z').valueOf();
sats=[{"MEAN_ELEMENT_THEORY":"SGP4","COUNTRY_CODE":"US","BSTAR":"0.00021105000000","GP_ID":"183927990","LAUNCH_DATE":"2020-08-18","MEAN_MOTION_DOT":"0.00002863","FILE":"3107096","REF_FRAME":"TEME","PERIAPSIS":"546.006","RA_OF_ASC_NODE":"163.4149","MEAN_ANOMALY":"291.0587","DECAY_DATE":null,"EPHEMERIS_TYPE":"0","NORAD_CAT_ID":"46119","OBJECT_ID":"2020-057C","RCS_SIZE":"LARGE","CLASSIFICATION_TYPE":"U","INCLINATION":"53.0549","TIME_SYSTEM":"UTC","TLE_LINE1":"1 46119U 20057C   21244.76703335  .00002863  00000-0  21105-3 0  9993","TLE_LINE2":"2 46119  53.0549 163.4149 0001782  69.0592 291.0587 15.06391271 58646","ARG_OF_PERICENTER":"69.0592","MEAN_MOTION":"15.06391271","CENTER_NAME":"EARTH","SITE":"AFETR","ELEMENT_SET_NO":"999","REV_AT_EPOCH":"5864","MEAN_MOTION_DDOT":"0.0000000000000","OBJECT_NAME":"STARLINK-1593","ECCENTRICITY":"0.00017820","EPOCH":"2021-09-01T18:24:31.681440","OBJECT_TYPE":"PAYLOAD","PERIOD":"95.593","APOAPSIS":"548.474","SEMIMAJOR_AXIS":"6925.375"},{"ARG_OF_PERICENTER":"54.8299","TLE_LINE2":"2 46120  53.0544 165.5667 0001738  54.8299 305.2853 15.06403896 58593","TIME_SYSTEM":"UTC","TLE_LINE1":"1 46120U 20057D   21244.28783213  .00004049  00000-0  29052-3 0  9992","CLASSIFICATION_TYPE":"U","INCLINATION":"53.0544","RCS_SIZE":"LARGE","OBJECT_NAME":"STARLINK-1601","MEAN_MOTION_DDOT":"0.0000000000000","REV_AT_EPOCH":"5859","ELEMENT_SET_NO":"999","SITE":"AFETR","CENTER_NAME":"EARTH","MEAN_MOTION":"15.06403896","PERIOD":"95.592","OBJECT_TYPE":"PAYLOAD","EPOCH":"2021-09-01T06:54:28.696032","ECCENTRICITY":"0.00017380","SEMIMAJOR_AXIS":"6925.337","APOAPSIS":"548.405","GP_ID":"183876721","BSTAR":"0.00029052000000","COUNTRY_CODE":"US","MEAN_ELEMENT_THEORY":"SGP4","REF_FRAME":"TEME","FILE":"3106942","MEAN_MOTION_DOT":"0.00004049","LAUNCH_DATE":"2020-08-18","MEAN_ANOMALY":"305.2853","RA_OF_ASC_NODE":"165.5667","PERIAPSIS":"545.998","OBJECT_ID":"2020-057D","NORAD_CAT_ID":"46120","EPHEMERIS_TYPE":"0","DECAY_DATE":null},{"TLE_LINE2":"2 46121  53.0546 146.3044 0001491  66.8692 293.2454 15.06388222 57562","ARG_OF_PERICENTER":"66.8692","INCLINATION":"53.0546","CLASSIFICATION_TYPE":"U","TLE_LINE1":"1 46121U 20057E   21244.12383864  .00001961  00000-0  15057-3 0  9994","TIME_SYSTEM":"UTC","RCS_SIZE":"LARGE","MEAN_MOTION_DDOT":"0.0000000000000","OBJECT_NAME":"STARLINK-1602","SITE":"AFETR","CENTER_NAME":"EARTH","REV_AT_EPOCH":"5756","ELEMENT_SET_NO":"999","MEAN_MOTION":"15.06388222","OBJECT_TYPE":"PAYLOAD","PERIOD":"95.593","ECCENTRICITY":"0.00014910","EPOCH":"2021-09-01T02:58:19.658496","SEMIMAJOR_AXIS":"6925.385","APOAPSIS":"548.282","GP_ID":"183876971","BSTAR":"0.00015057000000","MEAN_ELEMENT_THEORY":"SGP4","COUNTRY_CODE":"US","FILE":"3106942","REF_FRAME":"TEME","MEAN_MOTION_DOT":"0.00001961","LAUNCH_DATE":"2020-08-18","MEAN_ANOMALY":"293.2454","RA_OF_ASC_NODE":"146.3044","PERIAPSIS":"546.217","NORAD_CAT_ID":"46121","OBJECT_ID":"2020-057E","DECAY_DATE":null,"EPHEMERIS_TYPE":"0"},{"DECAY_DATE":null,"EPHEMERIS_TYPE":"0","NORAD_CAT_ID":"46122","OBJECT_ID":"2020-057F","PERIAPSIS":"545.865","RA_OF_ASC_NODE":"122.9837","MEAN_ANOMALY":"295.4416","LAUNCH_DATE":"2020-08-18","MEAN_MOTION_DOT":"0.00001076","FILE":"3107096","REF_FRAME":"TEME","MEAN_ELEMENT_THEORY":"SGP4","COUNTRY_CODE":"US","BSTAR":"0.00009112200000","GP_ID":"183925484","APOAPSIS":"548.613","SEMIMAJOR_AXIS":"6925.374","ECCENTRICITY":"0.00019840","EPOCH":"2021-09-01T20:42:31.061664","OBJECT_TYPE":"PAYLOAD","PERIOD":"95.593","MEAN_MOTION":"15.06391692","CENTER_NAME":"EARTH","SITE":"AFETR","REV_AT_EPOCH":"5921","ELEMENT_SET_NO":"999","MEAN_MOTION_DDOT":"0.0000000000000","OBJECT_NAME":"STARLINK-1604","RCS_SIZE":"LARGE","INCLINATION":"53.0536","CLASSIFICATION_TYPE":"U","TLE_LINE1":"1 46122U 20057F   21244.86285951  .00001076  00000-0  91122-4 0  9999","TIME_SYSTEM":"UTC","TLE_LINE2":"2 46122  53.0536 122.9837 0001984  64.6779 295.4416 15.06391692 59212","ARG_OF_PERICENTER":"64.6779"},{"MEAN_MOTION_DOT":"0.00001411","REF_FRAME":"TEME","FILE":"3107096","LAUNCH_DATE":"2020-08-18","BSTAR":"0.00011366000000","GP_ID":"183927491","COUNTRY_CODE":"US","MEAN_ELEMENT_THEORY":"SGP4","OBJECT_ID":"2020-057G","NORAD_CAT_ID":"46123","EPHEMERIS_TYPE":"0","DECAY_DATE":null,"RA_OF_ASC_NODE":"123.0497","MEAN_ANOMALY":"286.1054","PERIAPSIS":"545.914","REV_AT_EPOCH":"5923","ELEMENT_SET_NO":"999","CENTER_NAME":"EARTH","SITE":"AFETR","OBJECT_NAME":"STARLINK-1605","MEAN_MOTION_DDOT":"0.0000000000000","MEAN_MOTION":"15.06389302","TIME_SYSTEM":"UTC","TLE_LINE1":"1 46123U 20057G   21244.84811913  .00001411  00000-0  11366-3 0  9995","INCLINATION":"53.0542","CLASSIFICATION_TYPE":"U","ARG_OF_PERICENTER":"74.0147","TLE_LINE2":"2 46123  53.0542 123.0497 0001924  74.0147 286.1054 15.06389302 59234","RCS_SIZE":"LARGE","SEMIMAJOR_AXIS":"6925.381","APOAPSIS":"548.579","OBJECT_TYPE":"PAYLOAD","PERIOD":"95.593","EPOCH":"2021-09-01T20:21:17.492832","ECCENTRICITY":"0.00019240"},{"EPOCH":"2021-09-01T22:07:27.127200","ECCENTRICITY":"0.00020550","PERIOD":"95.593","OBJECT_TYPE":"PAYLOAD","APOAPSIS":"548.666","SEMIMAJOR_AXIS":"6925.378","RCS_SIZE":"LARGE","ARG_OF_PERICENTER":"62.6383","TLE_LINE2":"2 46124  53.0548 122.7200 0002055  62.6383 297.4815 15.06390367 57972","TLE_LINE1":"1 46124U 20057H   21244.92184175  .00001869  00000-0  14438-3 0  9998","TIME_SYSTEM":"UTC","INCLINATION":"53.0548","CLASSIFICATION_TYPE":"U","MEAN_MOTION":"15.06390367","OBJECT_NAME":"STARLINK-1614","MEAN_MOTION_DDOT":"0.0000000000000","REV_AT_EPOCH":"5797","ELEMENT_SET_NO":"999","SITE":"AFETR","CENTER_NAME":"EARTH","PERIAPSIS":"545.820","MEAN_ANOMALY":"297.4815","RA_OF_ASC_NODE":"122.7200","EPHEMERIS_TYPE":"0","DECAY_DATE":null,"OBJECT_ID":"2020-057H","NORAD_CAT_ID":"46124","COUNTRY_CODE":"US","MEAN_ELEMENT_THEORY":"SGP4","GP_ID":"183926739","BSTAR":"0.00014438000000","LAUNCH_DATE":"2020-08-18","REF_FRAME":"TEME","FILE":"3107096","MEAN_MOTION_DOT":"0.00001869"},{"MEAN_MOTION":"15.06391172","CENTER_NAME":"EARTH","SITE":"AFETR","ELEMENT_SET_NO":"999","REV_AT_EPOCH":"5865","MEAN_MOTION_DDOT":"0.0000000000000","OBJECT_NAME":"STARLINK-1618","RCS_SIZE":"LARGE","INCLINATION":"53.0530","CLASSIFICATION_TYPE":"U","TLE_LINE1":"1 46125U 20057J   21244.83706144  .00001264  00000-0  10375-3 0  9990","TIME_SYSTEM":"UTC","TLE_LINE2":"2 46125  53.0530 163.1025 0001779  59.5422 300.5743 15.06391172 58656","ARG_OF_PERICENTER":"59.5422","APOAPSIS":"548.473","SEMIMAJOR_AXIS":"6925.376","ECCENTRICITY":"0.00017790","EPOCH":"2021-09-01T20:05:22.108416","OBJECT_TYPE":"PAYLOAD","PERIOD":"95.593","LAUNCH_DATE":"2020-08-18","MEAN_MOTION_DOT":"0.00001264","FILE":"3107096","REF_FRAME":"TEME","MEAN_ELEMENT_THEORY":"SGP4","COUNTRY_CODE":"US","BSTAR":"0.00010375000000","GP_ID":"183926489","DECAY_DATE":null,"EPHEMERIS_TYPE":"0","NORAD_CAT_ID":"46125","OBJECT_ID":"2020-057J","PERIAPSIS":"546.009","RA_OF_ASC_NODE":"163.1025","MEAN_ANOMALY":"300.5743"},{"MEAN_ANOMALY":"300.5530","RA_OF_ASC_NODE":"163.0301","PERIAPSIS":"546.020","OBJECT_ID":"2020-057K","NORAD_CAT_ID":"46126","EPHEMERIS_TYPE":"0","DECAY_DATE":null,"GP_ID":"183925984","BSTAR":"0.00011338000000","COUNTRY_CODE":"US","MEAN_ELEMENT_THEORY":"SGP4","REF_FRAME":"TEME","FILE":"3107096","MEAN_MOTION_DOT":"0.00001407","LAUNCH_DATE":"2020-08-18","OBJECT_TYPE":"PAYLOAD","PERIOD":"95.593","EPOCH":"2021-09-01T19:28:14.630880","ECCENTRICITY":"0.00018160","SEMIMAJOR_AXIS":"6925.413","APOAPSIS":"548.536","ARG_OF_PERICENTER":"59.5638","TLE_LINE2":"2 46126  53.0562 163.0301 0001816  59.5638 300.5530 15.06378979 57393","TLE_LINE1":"1 46126U 20057K   21244.81128045  .00001407  00000-0  11338-3 0  9996","TIME_SYSTEM":"UTC","CLASSIFICATION_TYPE":"U","INCLINATION":"53.0562","RCS_SIZE":"LARGE","OBJECT_NAME":"STARLINK-1619","MEAN_MOTION_DDOT":"0.0000000000000","ELEMENT_SET_NO":"999","REV_AT_EPOCH":"5739","CENTER_NAME":"EARTH","SITE":"AFETR","MEAN_MOTION":"15.06378979"},{"SEMIMAJOR_AXIS":"6925.401","APOAPSIS":"548.526","OBJECT_TYPE":"PAYLOAD","PERIOD":"95.593","EPOCH":"2021-09-01T20:50:29.969952","ECCENTRICITY":"0.00018200","OBJECT_NAME":"STARLINK-1621","MEAN_MOTION_DDOT":"0.0000000000000","ELEMENT_SET_NO":"999","REV_AT_EPOCH":"5767","CENTER_NAME":"EARTH","SITE":"AFETR","MEAN_MOTION":"15.06382871","ARG_OF_PERICENTER":"66.7682","TLE_LINE2":"2 46127  53.0559 142.9616 0001820  66.7682 293.3499 15.06382871 57679","TIME_SYSTEM":"UTC","TLE_LINE1":"1 46127U 20057L   21244.86840243  .00001077  00000-0  91237-4 0  9993","CLASSIFICATION_TYPE":"U","INCLINATION":"53.0559","RCS_SIZE":"LARGE","OBJECT_ID":"2020-057L","NORAD_CAT_ID":"46127","EPHEMERIS_TYPE":"0","DECAY_DATE":null,"MEAN_ANOMALY":"293.3499","RA_OF_ASC_NODE":"142.9616","PERIAPSIS":"546.006","REF_FRAME":"TEME","FILE":"3107096","MEAN_MOTION_DOT":"0.00001077","LAUNCH_DATE":"2020-08-18","GP_ID":"183927991","BSTAR":"0.00009123700000","COUNTRY_CODE":"US","MEAN_ELEMENT_THEORY":"SGP4"},{"DECAY_DATE":null,"EPHEMERIS_TYPE":"0","NORAD_CAT_ID":"46128","OBJECT_ID":"2020-057M","PERIAPSIS":"545.722","MEAN_ANOMALY":"286.8427","RA_OF_ASC_NODE":"122.8369","LAUNCH_DATE":"2020-08-18","FILE":"3107096","REF_FRAME":"TEME","MEAN_MOTION_DOT":"0.00000871","MEAN_ELEMENT_THEORY":"SGP4","COUNTRY_CODE":"US","GP_ID":"183926240","BSTAR":"0.00007736400000","APOAPSIS":"548.736","SEMIMAJOR_AXIS":"6925.364","ECCENTRICITY":"0.00021760","EPOCH":"2021-09-01T21:30:16.594560","OBJECT_TYPE":"PAYLOAD","PERIOD":"95.592","MEAN_MOTION":"15.06394927","MEAN_MOTION_DDOT":"0.0000000000000","OBJECT_NAME":"STARLINK-1622","CENTER_NAME":"EARTH","SITE":"AFETR","REV_AT_EPOCH":"5796","ELEMENT_SET_NO":"999","RCS_SIZE":"LARGE","TLE_LINE2":"2 46128  53.0550 122.8369 0002176  73.2800 286.8427 15.06394927 57968","ARG_OF_PERICENTER":"73.2800","INCLINATION":"53.0550","CLASSIFICATION_TYPE":"U","TIME_SYSTEM":"UTC","TLE_LINE1":"1 46128U 20057M   21244.89602540  .00000871  00000-0  77364-4 0  9999"}];
